{
    "links": {
        "self": "http://www.neowsapp.com/rest/v1/neo/3175325?api_key=iIulBulltgU6a56xZRHN4H3l9WmuAYTsLGpBGhQ2"
    },
    "id": "3175325",
    "neo_reference_id": "3175325",
    "name": "(2004 CA2)",
    "designation": "2004 CA2",
    "nasa_jpl_url": "http://ssd.jpl.nasa.gov/sbdb.cgi?sstr=3175325",
    "absolute_magnitude_h": 23.7,
    "estimated_diameter": {
        "kilometers": {
            "estimated_diameter_min": 0.0483676488,
            "estimated_diameter_max": 0.1081533507
        },
        "meters": {
            "estimated_diameter_min": 48.3676488219,
            "estimated_diameter_max": 108.1533506775
        },
        "miles": {
            "estimated_diameter_min": 0.0300542543,
            "estimated_diameter_max": 0.0672033557
        },
        "feet": {
            "estimated_diameter_min": 158.6865169607,
            "estimated_diameter_max": 354.8338390368
        }
    },
    "is_potentially_hazardous_asteroid": false,
    "close_approach_data": [
        {
            "close_approach_date": "2004-02-01",
            "close_approach_date_full": "2004-Feb-01 19:11",
            "epoch_date_close_approach": 1075662660000,
            "relative_velocity": {
                "kilometers_per_second": "14.2068109653",
                "kilometers_per_hour": "51144.5194750976",
                "miles_per_hour": "31779.2154482905"
            },
            "miss_distance": {
                "astronomical": "0.0096624019",
                "lunar": "3.7586743391",
                "kilometers": "1445474.743323953",
                "miles": "898176.3565104314"
            },
            "orbiting_body": "Earth"
        },
        {
            "close_approach_date": "2004-02-01",
            "close_approach_date_full": "2004-Feb-01 21:24",
            "epoch_date_close_approach": 1075670640000,
            "relative_velocity": {
                "kilometers_per_second": "13.3407592206",
                "kilometers_per_hour": "48026.7331942986",
                "miles_per_hour": "29841.9443006463"
            },
            "miss_distance": {
                "astronomical": "0.0085598578",
                "lunar": "3.3297846842",
                "kilometers": "1280536.494382886",
                "miles": "795688.4810443868"
            },
            "orbiting_body": "Moon"
        }
    ],
    "orbital_data": {
        "orbit_id": "12",
        "orbit_determination_date": "2017-04-06 09:13:11",
        "first_observation_date": "2004-02-12",
        "last_observation_date": "2004-02-22",
        "data_arc_in_days": 10,
        "observations_used": 42,
        "orbit_uncertainty": "8",
        "minimum_orbit_intersection": ".00715941",
        "jupiter_tisserand_invariant": "3.470",
        "epoch_osculation": "2453049.5",
        "eccentricity": ".6140152360255687",
        "semi_major_axis": "2.109531269210771",
        "inclination": "3.252407830865704",
        "ascending_node_longitude": "304.2545216726816",
        "orbital_period": "1119.121856785747",
        "perihelion_distance": ".814246929043002",
        "perihelion_argument": "130.4076040956697",
        "aphelion_distance": "3.404815609378541",
        "perihelion_time": "2452998.922445064931",
        "mean_anomaly": "16.26982769233028",
        "mean_motion": ".3216807873219126",
        "equinox": "J2000",
        "orbit_class": {
            "orbit_class_type": "APO",
            "orbit_class_description": "Near-Earth asteroid orbits which cross the Earth’s orbit similar to that of 1862 Apollo",
            "orbit_class_range": "a (semi-major axis) > 1.0 AU; q (perihelion) < 1.017 AU"
        }
    },
    "is_sentry_object": false
}